NORAD_CAT_ID,OBJECT_NAME,OBJECT_TYPE,EPOCH,MEAN_MOTION,ECCENTRICITY,INCLINATION,RA_OF_ASC_NODE,ARG_OF_PERICENTER,MEAN_ANOMALY,BSTAR,MEAN_MOTION_DOT,MEAN_MOTION_DDOT,TLE_LINE0,TLE_LINE1,TLE_LINE2,SEMIMAJOR_AXIS,PERIOD,APOGEE,PERIGEE,DECAYED
53745.0,STARLINK-4656,PAYLOAD,2024-05-30 13:03:30,15.08844898,0.0001166,53.2174,293.8905,78.798,281.3143,0.00014362,1.999e-05,0.0,0 STARLINK-4656,1 53745U 22107AX  24151.54409848  .00001999  00000-0  14362-3 0  9998,2 53745  53.2174 293.8905 0001166  78.7980 281.3143 15.08844898 95963,6917.865,95.437,540.537,538.924,0.0
53745.0,STARLINK-4656,PAYLOAD,2024-05-30 14:38:53,15.08845526,0.0001161,53.2177,293.5932,83.0473,277.0651,0.00014776,2.065e-05,0.0,0 STARLINK-4656,1 53745U 22107AX  24151.61033795  .00002065  00000-0  14776-3 0  9994,2 53745  53.2177 293.5932 0001161  83.0473 277.0651 15.08845526 96757,6917.863,95.437,540.532,538.925,0.0
53745.0,STARLINK-4656,PAYLOAD,2024-05-31 12:54:15,15.08907198,6.7e-05,53.2175,289.4329,80.1879,279.9189,-0.00086941,-0.00014123,0.0,0 STARLINK-4656,1 53745U 22107AX  24152.53768401 -.00014123  00000-0 -86941-3 0  9998,2 53745  53.2175 289.4329 0000670  80.1879 279.9189 15.08907198 96112,6917.675,95.433,540.003,539.077,0.0
53745.0,STARLINK-4656,PAYLOAD,2024-05-31 14:29:40,15.08826682,0.0001028,53.2173,289.1332,82.4032,277.7077,0.00032903,4.951e-05,0.0,0 STARLINK-4656,1 53745U 22107AX  24152.60394544  .00004951  00000-0  32903-3 0  9994,2 53745  53.2173 289.1332 0001028  82.4032 277.7077 15.08826682 96902,6917.921,95.438,540.497,539.075,0.0
53745.0,STARLINK-4656,PAYLOAD,2024-06-01 01:37:22,15.08845606,8.65e-05,53.2156,287.0479,64.8943,295.2139,9.5262e-05,1.229e-05,0.0,0 STARLINK-4656,1 53745U 22107AX  24153.06761666  .00001229  00000-0  95262-4 0  9991,2 53745  53.2156 287.0479 0000865  64.8943 295.2139 15.08845606 96197,6917.863,95.437,540.327,539.13,0.0
53745.0,STARLINK-4656,PAYLOAD,2024-06-01 12:45:05,15.08831038,0.0001485,53.219,284.9705,103.0242,257.0916,-0.00010348,-1.934e-05,0.0,0 STARLINK-4656,1 53745U 22107AX  24153.53131409 -.00001934  00000-0 -10348-3 0  9995,2 53745  53.2190 284.9705 0001485 103.0242 257.0916 15.08831038 96261,6917.908,95.438,540.8,538.745,0.0
53745.0,STARLINK-4656,PAYLOAD,2024-06-01 14:20:28,15.08829316,0.0001246,53.2179,284.6734,91.3285,268.785,-9.5065e-05,-1.8e-05,0.0,0 STARLINK-4656,1 53745U 22107AX  24153.59755590 -.00001800  00000-0 -95065-4 0  9996,2 53745  53.2179 284.6734 0001246  91.3285 268.7850 15.08829316 97058,6917.913,95.438,540.64,538.916,0.0
53745.0,STARLINK-4656,PAYLOAD,2024-06-02 01:28:10,15.08838627,0.0001376,53.2192,282.5918,93.6091,266.5058,-5.1165e-05,-1.102e-05,0.0,0 STARLINK-4656,1 53745U 22107AX  24154.06122986 -.00001102  00000-0 -51165-4 0  9994,2 53745  53.2192 282.5918 0001376  93.6091 266.5058 15.08838627 96340,6917.885,95.438,540.701,538.798,0.0
53745.0,STARLINK-4656,PAYLOAD,2024-06-02 12:35:51,15.08848019,0.0001117,53.2174,280.5093,91.2642,268.8478,0.00012331,1.676e-05,0.0,0 STARLINK-4656,1 53745U 22107AX  24154.52490162  .00001676  00000-0  12331-3 0  9994,2 53745  53.2174 280.5093 0001117  91.2642 268.8478 15.08848019 96416,6917.856,95.437,540.494,538.948,0.0
53745.0,STARLINK-4656,PAYLOAD,2024-06-03 12:26:39,15.08839786,0.0001297,53.2168,276.0489,93.4254,266.6886,0.00024868,3.672e-05,0.0,0 STARLINK-4656,1 53745U 22107AX  24155.51850784  .00003672  00000-0  24868-3 0  9990,2 53745  53.2168 276.0489 0001297  93.4254 266.6886 15.08839786 96566,6917.881,95.438,540.643,538.849,0.0
53745.0,STARLINK-4656,PAYLOAD,2024-06-03 17:12:48,15.08847595,0.000155,53.2161,275.1556,88.4611,271.6559,0.00025134,3.715e-05,0.0,0 STARLINK-4656,1 53745U 22107AX  24155.71722402  .00003715  00000-0  25134-3 0  9992,2 53745  53.2161 275.1556 0001550  88.4611 271.6559 15.08847595 97377,6917.857,95.437,540.794,538.65,0.0
53745.0,STARLINK-4656,PAYLOAD,2024-06-04 13:52:48,15.08849635,0.0001271,53.2138,271.2896,88.2783,271.8355,9.6307e-05,1.246e-05,0.0,0 STARLINK-4656,1 53745U 22107AX  24156.57833940  .00001246  00000-0  96307-4 0  9995,2 53745  53.2138 271.2896 0001271  88.2783 271.8355 15.08849635 97501,6917.851,95.437,540.595,538.837,0.0
53745.0,STARLINK-4656,PAYLOAD,2024-06-05 12:08:12,15.08837563,0.0001615,53.2162,267.1251,102.169,257.9483,3.1395e-05,2.12e-06,0.0,0 STARLINK-4656,1 53745U 22107AX  24157.50570549  .00000212  00000-0  31395-4 0  9990,2 53745  53.2162 267.1251 0001615 102.1690 257.9483 15.08837563 96864,6917.888,95.438,540.87,538.636,0.0
53745.0,STARLINK-4656,PAYLOAD,2024-06-05 13:43:36,15.08837075,0.0001568,53.2153,266.828,101.197,258.9199,-1.2602e-05,-4.89e-06,0.0,0 STARLINK-4656,1 53745U 22107AX  24157.57194584 -.00000489  00000-0 -12602-4 0  9996,2 53745  53.2153 266.8280 0001568 101.1970 258.9199 15.08837075 97650,6917.889,95.438,540.839,538.67,0.0
53745.0,STARLINK-4656,PAYLOAD,2024-06-06 13:34:23,15.08847966,0.0001255,53.216,262.3679,93.375,266.7386,0.00032215,4.844e-05,0.0,0 STARLINK-4656,1 53745U 22107AX  24158.56554419  .00004844  00000-0  32215-3 0  9991,2 53745  53.2160 262.3679 0001255  93.3750 266.7386 15.08847966 97028,6917.856,95.437,540.589,538.853,0.0
53745.0,STARLINK-4656,PAYLOAD,2024-06-06 16:45:09,15.08854447,0.0001465,53.2165,261.7726,96.8714,263.2444,0.0004145,6.318e-05,0.0,0 STARLINK-4656,1 53745U 22107AX  24158.69802112  .00006318  00000-0  41450-3 0  9990,2 53745  53.2165 261.7726 0001465  96.8714 263.2444 15.08854447 97041,6917.836,95.437,540.715,538.688,0.0
53745.0,STARLINK-4656,PAYLOAD,2024-06-07 16:35:56,15.08848517,0.0001376,53.2155,257.3116,107.2809,252.8334,0.00032316,4.86e-05,0.0,0 STARLINK-4656,1 53745U 22107AX  24159.69162499  .00004860  00000-0  32316-3 0  9999,2 53745  53.2155 257.3116 0001376 107.2809 252.8334 15.08848517 97196,6917.854,95.437,540.671,538.767,0.0
53745.0,STARLINK-4656,PAYLOAD,2024-06-08 13:15:57,15.08848462,0.0001444,53.2172,253.4519,92.2099,267.9059,0.00061084,9.449e-05,0.0,0 STARLINK-4656,1 53745U 22107AX  24160.55274773  .00009449  00000-0  61084-3 0  9997,2 53745  53.2172 253.4519 0001444  92.2099 267.9059 15.08848462 98101,6917.855,95.437,540.718,538.721,0.0
53745.0,STARLINK-4656,PAYLOAD,2024-06-09 11:31:22,15.08833784,0.0001156,53.2137,249.2868,68.0188,292.0927,0.0002229,3.261e-05,0.0,0 STARLINK-4656,1 53745U 22107AX  24161.48011723  .00003261  00000-0  22290-3 0  9996,2 53745  53.2137 249.2868 0001156  68.0188 292.0927 15.08833784 97464,6917.899,95.438,540.564,538.965,0.0
53745.0,STARLINK-4656,PAYLOAD,2024-06-09 22:39:04,15.08837362,0.000117,53.2147,247.2011,79.4595,280.6529,0.00049505,7.599e-05,0.0,0 STARLINK-4656,1 53745U 22107AX  24161.94379865  .00007599  00000-0  49505-3 0  9997,2 53745  53.2147 247.2011 0001170  79.4595 280.6529 15.08837362 98319,6917.888,95.438,540.563,538.944,0.0
53745.0,STARLINK-4656,PAYLOAD,2024-06-10 12:57:32,15.08845523,0.0001327,53.2153,244.5289,90.2926,269.8218,0.00054891,8.46e-05,0.0,0 STARLINK-4656,1 53745U 22107AX  24162.53995922  .00008460  00000-0  54891-3 0  9993,2 53745  53.2153 244.5289 0001327  90.2926 269.8218 15.08845523 97621,6917.864,95.437,540.647,538.811,0.0
53745.0,STARLINK-4656,PAYLOAD,2024-06-10 22:29:51,15.08844493,0.0001462,53.215,242.7424,92.0624,268.0536,0.00068767,0.00010675,0.0,0 STARLINK-4656,1 53745U 22107AX  24162.93739971  .00010675  00000-0  68767-3 0  9995,2 53745  53.2150 242.7424 0001462  92.0624 268.0536 15.08844493 98466,6917.867,95.437,540.743,538.72,0.0
53745.0,STARLINK-4656,PAYLOAD,2024-06-11 12:48:18,15.08860733,0.0001332,53.2144,240.0685,89.2232,270.8912,0.00056179,8.669e-05,0.0,0 STARLINK-4656,1 53745U 22107AX  24163.53355158  .00008669  00000-0  56179-3 0  9997,2 53745  53.2144 240.0685 0001332  89.2232 270.8912 15.08860733 98552,6917.817,95.436,540.603,538.761,0.0
53745.0,STARLINK-4656,PAYLOAD,2024-06-11 22:20:37,15.0884526,0.0001646,53.2153,238.2824,74.442,285.6753,9.8094e-05,1.274e-05,0.0,0 STARLINK-4656,1 53745U 22107AX  24163.93099496  .00001274  00000-0  98094-4 0  9999,2 53745  53.2153 238.2824 0001646  74.4420 285.6753 15.08845260 97834,6917.864,95.437,540.868,538.591,0.0
53745.0,STARLINK-4656,PAYLOAD,2024-06-12 11:03:43,15.08826629,0.0001165,53.215,235.9042,73.285,286.827,-0.00022882,-3.926e-05,0.0,0 STARLINK-4656,1 53745U 22107AX  24164.46092254 -.00003926  00000-0 -22882-3 0  9992,2 53745  53.2150 235.9042 0001165  73.2850 286.8270 15.08826629 97911,6917.921,95.438,540.592,538.98,0.0
53745.0,STARLINK-4656,PAYLOAD,2024-06-13 04:32:58,15.08843695,0.0001359,53.2149,232.6328,73.8406,286.2736,0.0003344,5.039e-05,0.0,0 STARLINK-4656,1 53745U 22107AX  24165.18956139  .00005039  00000-0  33440-3 0  9990,2 53745  53.2149 232.6328 0001359  73.8406 286.2736 15.08843695 98024,6917.869,95.437,540.674,538.794,0.0
53745.0,STARLINK-4656,PAYLOAD,2024-06-13 10:54:30,15.08856472,0.0001338,53.2145,231.4433,66.7799,293.3333,0.0011109,0.00017444,0.0,0 STARLINK-4656,1 53745U 22107AX  24165.45452161  .00017444  00000-0  11109-2 0  9996,2 53745  53.2145 231.4433 0001338  66.7799 293.3333 15.08856472 98846,6917.83,95.437,540.621,538.769,0.0
53745.0,STARLINK-4656,PAYLOAD,2024-06-14 13:56:03,15.08845382,0.0001399,53.2165,226.3857,78.4988,281.6161,0.00018733,2.695e-05,0.0,0 STARLINK-4656,1 53745U 22107AX  24166.58059968  .00002695  00000-0  18733-3 0  9992,2 53745  53.2165 226.3857 0001399  78.4988 281.6161 15.08845382 99015,6917.864,95.437,540.697,538.761,0.0
53745.0,STARLINK-4656,PAYLOAD,2024-06-15 10:36:04,15.08848024,0.0001345,53.2152,222.521,73.0928,287.0212,0.00012896,1.766e-05,0.0,0 STARLINK-4656,1 53745U 22107AX  24167.44171662  .00001766  00000-0  12896-3 0  9996,2 53745  53.2152 222.5210 0001345  73.0928 287.0212 15.08848024 99145,6917.856,95.437,540.651,538.79,0.0
53745.0,STARLINK-4656,PAYLOAD,2024-06-15 20:08:23,15.08845233,0.0001294,53.2148,220.7372,71.5219,288.5914,2.18e-05,5.9e-07,0.0,0 STARLINK-4656,1 53745U 22107AX  24167.83915659  .00000059  00000-0  21800-4 0  9991,2 53745  53.2148 220.7372 0001294  71.5219 288.5914 15.08845233 99209,6917.864,95.437,540.625,538.834,0.0
